{"fetched_at":"2026-03-29T16:36:15Z","count":15609,"tles":[{"name":"STARLINK-30924","line1":"1 58412U 23180L   26087.26327631 -.00008062  00000+0 -24738-3 0  9991","line2":"2 58412  43.0011 158.9775 0000650 317.0838  42.9964 15.31964283132219","category":"Starlink"}]}